BEESAT-4                
1 41619U 16040W   21085.21105165  .00003269  00000-0  13324-3 0  9995
2 41619  97.2803 143.6104 0009024 264.0041  96.0169 15.25121707252329
CAS-2T & KS-1Q          
1 41847U 16066G   21084.43287811  .00000279  00000-0  51227-4 0  9991
2 41847  98.6120 143.1736 0366445 111.1187 252.9578 14.38164810229800
NAYIF-1 (EO-88)         
1 42017U 17008BX  21084.40832615  .00003881  00000-0  14585-3 0  9990
2 42017  97.3245 153.5043 0007323  57.8340 302.3608 15.27734735228423
ZHUHAI-1 02 (CAS-4B)    
1 42759U 17034B   21085.03258218  .00000528  00000-0  45158-4 0  9999
2 42759  43.0181 279.6740 0009702 354.0856 143.8865 15.10126972208537
ZHUHAI-1 01 (CAS-4A)    
1 42761U 17034D   21085.02813800  .00000545  00000-0  46123-4 0  9997
2 42761  43.0182 278.8101 0010225 356.2452 141.6546 15.10208331208533
MAX VALIER SAT          
1 42778U 17036P   21084.75742906  .00002211  00000-0  95763-4 0  9990
2 42778  97.2665 136.0769 0013754 109.8490 250.4231 15.23343853208541
RADFXSAT (FOX-1B)       
1 43017U 17073E   21084.19812505  .00000835  00000-0  70155-4 0  9997
2 43017  97.7130 351.5114 0254525 214.9838 143.4424 14.79399525180669
FOX-1D (AO-92)          
1 43137U 18004AC  21085.13856420  .00002625  00000-0  10809-3 0  9992
2 43137  97.4131 160.0138 0010062 137.6257 222.5759 15.24964704177957
DIWATA-2B               
1 43678U 18084H   21085.34504072 -.00000172  00000-0 -11310-4 0  9992
2 43678  97.9085 210.2598 0009251 334.1872  25.8892 14.91720584131044
ES'HAIL 2               
1 43700U 18090A   21085.23028076  .00000137  00000-0  00000+0 0  9996
2 43700   0.0204 215.5270 0002323 177.7917 259.2748  1.00270064  8772
FOX-1CLIFF (AO-95)      
1 43770U 18099N   21084.19961058  .00000863  00000-0  83513-4 0  9993
2 43770  97.6722 156.2225 0013866 345.1443  14.9369 14.95237545125866
ITASAT 1                
1 43786U 18099AE  21085.00545679  .00000885  00000-0  84846-4 0  9992
2 43786  97.6740 157.6311 0014263 335.0798  24.9733 14.95544476126015
JY1SAT (JO-97)          
1 43803U 18099AX  21084.64810331  .00000324  00000-0  34131-4 0  9991
2 43803  97.6700 157.0440 0014378 336.0563  23.9988 14.95772594125964
UWE-4                   
1 43880U 18111E   21084.55429334  .00001229  00000-0  11230-3 0  9999
2 43880  97.6919 353.7011 0013014  32.0741 328.1270 14.96774632122537
PSAT2 (NO-104)          
1 44354U 19036R   21084.37313575  .00030884  00000-0  42177-3 0  9995
2 44354  28.5282 326.7255 0335089  85.8245 278.0565 15.11087511 96232
BRICSAT2 (NO-103)       
1 44355U 19036S   21083.97784289  .00054305  00000-0  63644-3 0  9991
2 44355  28.5257 296.8367 0283880 134.3883 228.0330 15.24356285 96501
JAISAT-1                
1 44419U 19038F   21084.61579566  .00001837  00000-0  10587-3 0  9996
2 44419  97.5788  49.6904 0019607 239.2121 120.7180 15.13519705 95115
DUCHIFAT-3              
1 44854U 19089C   21085.08841284  .00001011  00000-0  87362-4 0  9996
2 44854  36.9650 233.5998 0007401 194.0808 165.9728 14.99391714 70583
RS-44 & BREEZE-KM R/B   
1 44909U 19096E   21084.58057597  .00000011  00000-0  93225-5 0  9990
2 44909  82.5247 168.5395 0216225 289.2918  68.4911 12.79708983 58118
ORBITAL FACTORY 2 (OF-2)
1 45113U 19071C   21085.16317526  .00004764  00000-0  14839-3 0  9998
2 45113  51.6416  81.1716 0012375 355.9396   4.1484 15.35125745 64370
HUSKYSAT-1 (HO-107)     
1 45119U 19071J   21085.04705041  .00005415  00000-0  16676-3 0  9999
2 45119  51.6415  81.1438 0011660 352.0747   8.0049 15.35202380 64359
BY70-2                  
1 45857U 20042B   21085.17743813  .00001445  00000-0  21305-3 0  9995
2 45857  97.9876 161.7909 0012895 120.8937 239.3570 14.76793063 39259
SALSAT                  
1 46495U 20068K   21084.86625968  .00000202  00000-0  19416-4 0  9998
2 46495  97.6876  22.8943 0017418   2.3499 357.7804 15.03387160 26779
BY70-3                  
1 46839U 20079N   21085.30189400  .00004918  00000-0  15601-3 0  9997
2 46839  97.2460 160.8166 0008506 135.7475 264.6369 15.33111574 21469
RADFXSAT-2 (AO-109)     
1 47311U 21002C   21084.44054085  .00002265  00000-0  11158-3 0  9990
2 47311  60.6869 245.6246 0022868 358.3791   1.7218 15.21390620 10081
UVSQ-SAT                
1 47438U 21006AB  21085.11929021  .00001603  00000-0  94438-4 0  9998
2 47438  97.4970 147.8037 0013523  32.6454 327.5610 15.12949614  9456
